HORYU-4                 
1 41340U 16012D   20094.37793770  .00000498  00000-0  30922-4 0  9991
2 41340  31.0047  89.8762 0013952 123.8783 236.3182 15.01453802226588
E-ST@R-II               
1 41459U 16025D   20094.39955222  .00002119  00000-0  10933-3 0  9991
2 41459  98.0955 200.5256 0167202 104.2456 257.7399 15.06237231216147
AAUSAT 4                
1 41460U 16025E   20094.51669841  .00003268  00000-0  16205-3 0  9990
2 41460  98.0931 202.7182 0155800  93.6440 268.2621 15.08463568216343
DIWATA-1                
1 41463U 98067HT  20094.41580495  .01481444  12126-4  32477-3 0  9997
2 41463  51.6172 158.4192 0005122 352.8195  75.2172 16.29681558225931
BEESAT-4                
1 41619U 16040W   20094.11078432  .00001504  00000-0  65237-4 0  9990
2 41619  97.3279 155.4029 0012889  86.6465 273.6246 15.23813862197926
CANX-7                  
1 41788U 16059F   20094.42049376  .00007163  00000-0  10062-2 0  9997
2 41788  98.2496 180.4301 0033271 171.6892 188.4859 14.77334377188731
RAVAN                   
1 41849U 16067B   20093.82158100  .00000211  00000-0  22829-4 0  9996
2 41849  97.9246 202.4279 0009002 134.4252 225.7708 14.98487212185295
CELTEE 1                
1 41850U 16067C   20094.01531506 -.00000066  00000-0 -44178-6 0  9998
2 41850  97.9196 200.5710 0009599 135.1880 225.0118 14.97142820185218
OPTICUBE 04             
1 41851U 16067D   20093.99976305 -.00000408  00000-0 -30240-4 0  9998
2 41851  97.9193 200.2145 0009743 134.9841 225.2171 14.96901811185190
AEROCUBE 8D             
1 41852U 16067E   20093.74736986 -.00000017  00000-0  38353-5 0  9990
2 41852  97.9194 199.7904 0010456 138.3104 221.8916 14.96865633185134
AEROCUBE 8C             
1 41853U 16067F   20093.77718388  .00000875  00000-0  81641-4 0  9998
2 41853  97.9198 199.7318 0011241 137.7742 222.4346 14.96834315185139
PROMETHEUS 2-1          
1 41854U 16067G   20093.82923887  .00000644  00000-0  61029-4 0  9999
2 41854  97.9200 200.0666 0011446 138.8562 221.3524 14.97126046185159
PROMETHEUS 2-3          
1 41855U 16067H   20093.83018342  .00000672  00000-0  63405-4 0  9993
2 41855  97.9202 200.0963 0011642 139.1708 221.0388 14.97136064185152
INS-1B                  
1 41954U 17008G   20094.07011346  .00001496  00000-0  63535-4 0  9992
2 41954  97.3617 159.7997 0008556 196.3433 163.7530 15.24593130173883
BGUSAT                  
1 41999U 17008BD  20093.99979153  .00002381  00000-0  92079-4 0  9999
2 41999  97.3719 163.4645 0007261 205.0103 155.0785 15.27187543173438
DIDO-2                  
1 42000U 17008BE  20094.41323898  .00000974  00000-0  42659-4 0  9995
2 42000  97.3625 160.6663 0007424 214.9084 145.1667 15.24355033173331
PEASSS                  
1 42015U 17008BV  20094.11759609  .00001223  00000-0  51168-4 0  9994
2 42015  97.3644 161.8276 0005214 216.8712 143.2168 15.25447100173866
AL-FARABI 1             
1 42016U 17008BW  20094.31029705  .00001710  00000-0  68824-4 0  9992
2 42016  97.3671 162.9420 0005150 214.3771 145.7135 15.26241134174061
NAYIF-1 (EO-88)         
1 42017U 17008BX  20094.15987029  .00001751  00000-0  70302-4 0  9996
2 42017  97.3664 162.8047 0005177 214.7020 145.3881 15.26279633174067
NSIGHT                  
1 42726U 98067MF  20094.12963924  .00297502  49211-4  51666-3 0  9995
2 42726  51.6244 248.1249 0007010 288.5513  71.4735 16.01675738163590
UCLSAT                  
1 42765U 17036A   20093.88462734  .00001253  00000-0  55600-4 0  9998
2 42765  97.3101 150.1255 0009680 296.0393  63.9847 15.23353698155071
LITUANICASAT-2          
1 42768U 17036D   20094.08298385  .00002338  00000-0  99900-4 0  9999
2 42768  97.3153 150.1822 0012940 282.4187  77.5602 15.23781377154364
AALTO-1                 
1 42775U 17036L   20094.09817863  .00000740  00000-0  35611-4 0  9990
2 42775  97.3080 148.3596 0012181 286.2555  73.7341 15.21729158154215
URSA MAIOR              
1 42776U 17036M   20093.37302021  .00000779  00000-0  37169-4 0  9998
2 42776  97.3093 147.9077 0012007 288.8817  71.1117 15.21898059154114
COMPASS 2               
1 42777U 17036N   20094.09933110  .00001647  00000-0  71471-4 0  9997
2 42777  97.3144 150.6409 0010568 284.3457  75.6607 15.23689334154325
DIAMOND RED             
1 42783U 17036U   20094.10845465  .00000979  00000-0  44941-4 0  9990
2 42783  97.3101 149.6874 0010389 296.9900  63.0276 15.22692618154288
PEGASUS                 
1 42784U 17036V   20094.09179339  .00001143  00000-0  51404-4 0  9995
2 42784  97.3106 150.0464 0010269 296.0109  64.0070 15.23052981154304
DIAMOND GREEN           
1 42785U 17036W   20094.43581381  .00001081  00000-0  49298-4 0  9997
2 42785  97.3103 150.0389 0010285 296.4536  63.5645 15.22692542154320
DIAMOND BLUE            
1 42786U 17036X   20094.43504431  .00001060  00000-0  48379-4 0  9995
2 42786  97.3103 150.0341 0010125 296.7222  63.2978 15.22693927154321
NUDTSAT                 
1 42787U 17036Y   20094.40852638  .00001552  00000-0  66346-4 0  9998
2 42787  97.3153 151.5826 0010159 296.1209  63.8986 15.24281459154260
SUCHAI                  
1 42788U 17036Z   20094.40521692  .00001480  00000-0  64736-4 0  9993
2 42788  97.3113 150.8724 0009776 293.1149  66.9057 15.23573306154457
SKCUBE                  
1 42789U 17036AA  20093.72130280  .00001251  00000-0  55394-4 0  9993
2 42789  97.3109 150.0808 0009678 296.3290  63.6953 15.23425578154266
VZLUSAT-1               
1 42790U 17036AB  20093.67486298  .00001772  00000-0  75411-4 0  9992
2 42790  97.3131 150.8625 0009154 294.1051  65.9229 15.24271168154309
ROBUSTA-1B              
1 42792U 17036AD  20094.27544903  .00001398  00000-0  61244-4 0  9992
2 42792  97.3110 150.8489 0009248 294.6360  65.3913 15.23614191154375
CICERO 6                
1 42793U 17036AE  20094.10013553  .00000887  00000-0  40610-4 0  9993
2 42793  97.3088 150.1788 0008615 298.7155  61.3216 15.23014071154394
D-SAT                   
1 42794U 17036AF  20094.35817456  .00000122  00000-0  16180-4 0  9992
2 42794  97.5029 130.6978 0124697 255.4476 103.2886 14.91243025151507
CORVUS BC2              
1 42846U 17042X   20094.13064124 -.00000024  00000-0  28232-5 0  9993
2 42846  97.5335 341.0397 0009976 160.6316 199.5285 14.92078360148179
CORVUS BC1              
1 42847U 17042Y   20094.13143512 -.00000030  00000-0  23043-5 0  9995
2 42847  97.5338 341.1963 0009630 159.5573 200.6033 14.92179413148178
MIRATA                  
1 43015U 17073C   20094.40470036  .00001118  00000-0  92645-4 0  9991
2 43015  97.7213   9.4682 0252364 293.5759  63.9133 14.79530452128124
MAKERSAT 0              
1 43016U 17073D   20094.27720815  .00000798  00000-0  67883-4 0  9999
2 43016  97.7250   9.5380 0255027 294.8600  62.6292 14.79130673128088
ASTERIA                 
1 43020U 98067NH  20093.91172583  .00266473  41232-4  48739-3 0  9997
2 43020  51.6428 262.1997 0004755 319.8372  40.2286 16.00836985135576
DELLINGR (RBLE)         
1 43021U 98067NJ  20094.18832829  .00016848  00000-0  14906-3 0  9996
2 43021  51.6363 303.9526 0002198 136.2651 223.8520 15.68765718135047
AEROCUBE 7B (OCSD B)    
1 43042U 17071F   20094.38487884  .00004144  00000-0  10153-3 0  9990
2 43042  51.6371  74.7820 0004873 124.7151 235.4295 15.43067311130789
AEROCUBE 7C (OCSD C)    
1 43043U 17071G   20094.38701906  .00004281  00000-0  10464-3 0  9992
2 43043  51.6372  74.8111 0005054 128.8877 231.2561 15.43042751130755
CHEFSAT                 
1 43044U 17071H   20093.56270734  .00009501  00000-0  19143-3 0  9995
2 43044  51.6381  66.5449 0004765 127.0921 233.0502 15.47270498130791
ASGARDIA 1              
1 43049U 17071N   20094.38315979  .00004030  00000-0  98807-4 0  9999
2 43049  51.6384  74.0994 0002594 136.8764 223.2425 15.43115468130751
ISARA                   
1 43050U 17071P   20094.33928863  .00008577  00000-0  17865-3 0  9992
2 43050  51.6363  64.8798 0002499 132.3892 227.7307 15.46440046130873
PROPCUBE 2 (FAUNA)      
1 43052U 17071R   20094.39048170  .00004664  00000-0  11139-3 0  9995
2 43052  51.6377  72.6670 0002584 133.1868 226.9335 15.43526186130771
CORVUS BC3              
1 43118U 18004H   20093.75375224  .00000780  00000-0  35911-4 0  9997
2 43118  97.4501 164.6253 0009263 326.0712  33.9931 15.23248903123475
MICROMAS-2A             
1 43131U 18004W   20093.73859563  .00002067  00000-0  85679-4 0  9999
2 43131  97.4541 166.0831 0008025 326.2388  33.8338 15.25022297123555
SPACEBEE-4              
1 43139U 18004AE  20094.16152088  .00003109  00000-0  12299-3 0  9998
2 43139  97.4572 167.5110 0007233 326.2268  33.8508 15.26202944123661
SPACEBEE-3              
1 43140U 18004AF  20094.27911176  .00003939  00000-0  15138-3 0  9999
2 43140  97.4585 168.2008 0006858 324.1162  35.9615 15.27010501123729
SPACEBEE-2              
1 43141U 18004AG  20094.14197077  .00004188  00000-0  15944-3 0  9994
2 43141  97.4596 168.2762 0006819 323.7260  36.3516 15.27284338123715
SPACEBEE-1              
1 43142U 18004AH  20094.06085135  .00003869  00000-0  14611-3 0  9992
2 43142  97.4599 168.4130 0006788 323.7592  36.3186 15.27598333123708
CICERO 7                
1 43143U 18004AJ  20094.13606198  .00001837  00000-0  76313-4 0  9990
2 43143  97.4521 166.6750 0006455 337.9185  22.1774 15.25091237123635
GOMX-4B                 
1 43196U 18015E   20094.57689469  .00000446  00000-0  21217-4 0  9998
2 43196  97.4234 223.7419 0019366  12.9454 347.2276 15.24188881120495
GOMX-4A                 
1 43197U 18015F   20094.41512696  .00000837  00000-0  36950-4 0  9993
2 43197  97.4235 223.6492 0019391  14.0800  57.3484 15.24391729120489
1KUNS-PF                
1 43466U 98067NP  20094.26804869  .00133260  00000-0  50108-3 0  9993
2 43466  51.6291 288.4389 0003466 239.0957 120.9707 15.86898414108510
UBAKUSAT                
1 43467U 98067NQ  20094.29111494  .00029882  00000-0  23031-3 0  9991
2 43467  51.6345 307.5497 0001591 130.8566 229.2570 15.71704458108277
